{
  "type": "FeatureCollection",
  "features": [
    {
      "type": "Feature",
      "properties": {
        "norad_id": 54741,
        "name": "GALAXY 35 (G-35)",
        "group": "intelsat",
        "lat": -0.005278604352624836,
        "lon": -27.141669145532937,
        "alt_km": 35782.328766980485,
        "timestamp": "2025-12-15T22:44:28.591888+00:00",
        "meta_object_name": "GALAXY 35 (G-35)",
        "meta_object_id": "2022-170A",
        "meta_epoch": "2025-12-15T06:05:50.109216",
        "meta_mean_motion": 1.00269209,
        "meta_eccentricity": 0.00022648,
        "meta_inclination": 0.0155,
        "meta_ra_of_asc_node": 343.7005,
        "meta_arg_of_pericenter": 287.2968,
        "meta_mean_anomaly": 171.5121,
        "meta_ephemeris_type": 0,
        "meta_classification_type": "U",
        "meta_norad_cat_id": 54741,
        "meta_element_set_no": 999,
        "meta_rev_at_epoch": 1104,
        "meta_bstar": 0,
        "meta_mean_motion_dot": 0,
        "meta_mean_motion_ddot": 0,
        "tle_line1": "1 54741U 22170A   25349.25405219  .00000000  00000+0  00000+0 0  9992",
        "tle_line2": "2 54741   0.0155 343.7005 0002264 287.2968 171.5121  1.00269209 11045"
      },
      "geometry": {
        "type": "Point",
        "coordinates": [
          -27.141669145532937,
          -0.005278604352624836
        ]
      }
    },
    {
      "type": "Feature",
      "properties": {
        "norad_id": 54742,
        "name": "GALAXY 36 (G-36)",
        "group": "intelsat",
        "lat": 0.004072286961104299,
        "lon": -22.981558570294357,
        "alt_km": 35787.04548582338,
        "timestamp": "2025-12-15T22:44:28.591899+00:00",
        "meta_object_name": "GALAXY 36 (G-36)",
        "meta_object_id": "2022-170B",
        "meta_epoch": "2025-12-15T00:58:46.928352",
        "meta_mean_motion": 1.00269065,
        "meta_eccentricity": 3.73e-05,
        "meta_inclination": 0.0188,
        "meta_ra_of_asc_node": 328.7853,
        "meta_arg_of_pericenter": 103.5858,
        "meta_mean_anomaly": 297.3548,
        "meta_ephemeris_type": 0,
        "meta_classification_type": "U",
        "meta_norad_cat_id": 54742,
        "meta_element_set_no": 999,
        "meta_rev_at_epoch": 1092,
        "meta_bstar": 0,
        "meta_mean_motion_dot": -1.65e-06,
        "meta_mean_motion_ddot": 0,
        "tle_line1": "1 54742U 22170B   25349.04082093 -.00000165  00000+0  00000+0 0  9994",
        "tle_line2": "2 54742   0.0188 328.7853 0000373 103.5858 297.3548  1.00269065 10929"
      },
      "geometry": {
        "type": "Point",
        "coordinates": [
          -22.981558570294357,
          0.004072286961104299
        ]
      }
    },
    {
      "type": "Feature",
      "properties": {
        "norad_id": 57493,
        "name": "GALAXY 37 (G-37)",
        "group": "intelsat",
        "lat": -0.02855733359818755,
        "lon": -61.0278539453043,
        "alt_km": 35778.33350019646,
        "timestamp": "2025-12-15T22:44:28.591911+00:00",
        "meta_object_name": "GALAXY 37 (G-37)",
        "meta_object_id": "2023-112A",
        "meta_epoch": "2025-12-15T07:35:38.904000",
        "meta_mean_motion": 1.00272733,
        "meta_eccentricity": 0.00020161,
        "meta_inclination": 0.0225,
        "meta_ra_of_asc_node": 53.4024,
        "meta_arg_of_pericenter": 216.2999,
        "meta_mean_anomaly": 161.4383,
        "meta_ephemeris_type": 0,
        "meta_classification_type": "U",
        "meta_norad_cat_id": 57493,
        "meta_element_set_no": 999,
        "meta_rev_at_epoch": 869,
        "meta_bstar": 0,
        "meta_mean_motion_dot": 6.9e-07,
        "meta_mean_motion_ddot": 0,
        "tle_line1": "1 57493U 23112A   25349.31642250  .00000069  00000+0  00000+0 0  9996",
        "tle_line2": "2 57493   0.0225  53.4024 0002016 216.2999 161.4383  1.00272733  8698"
      },
      "geometry": {
        "type": "Point",
        "coordinates": [
          -61.0278539453043,
          -0.02855733359818755
        ]
      }
    }
  ]
}